NORAD_CAT_ID,OBJECT_NAME,OBJECT_TYPE,EPOCH,MEAN_MOTION,ECCENTRICITY,INCLINATION,RA_OF_ASC_NODE,ARG_OF_PERICENTER,MEAN_ANOMALY,BSTAR,MEAN_MOTION_DOT,MEAN_MOTION_DDOT,TLE_LINE0,TLE_LINE1,TLE_LINE2,SEMIMAJOR_AXIS,PERIOD,APOGEE,PERIGEE,DECAYED
53706.0,STARLINK-4716,PAYLOAD,2024-01-17 14:20:21,15.08833807,0.0001406,53.2163,155.126,76.6414,283.4734,-5.1371e-05,-1.105e-05,0.0,0 STARLINK-4716,1 53706U 22107G   24017.59747211 -.00001105  00000-0 -51371-4 0  9993,2 53706  53.2163 155.1260 0001406  76.6414 283.4734 15.08833807 76784,6917.899,95.438,540.737,538.792,0.0
53706.0,STARLINK-4716,PAYLOAD,2024-01-18 11:00:23,15.08818569,0.0001259,53.2159,151.2603,91.4273,268.6863,0.00010768,1.425e-05,0.0,0 STARLINK-4716,1 53706U 22107G   24018.45860104  .00001425  00000-0  10768-3 0  9993,2 53706  53.2159 151.2603 0001259  91.4273 268.6863 15.08818569 76169,6917.946,95.439,540.682,538.94,0.0
53706.0,STARLINK-4716,PAYLOAD,2024-01-18 14:11:09,15.08803777,0.0001256,53.2163,150.6655,81.4757,278.6378,0.00032367,4.862e-05,0.0,0 STARLINK-4716,1 53706U 22107G   24018.59108659  .00004862  00000-0  32367-3 0  9995,2 53706  53.2163 150.6655 0001256  81.4757 278.6378 15.08803777 76939,6917.991,95.44,540.725,538.987,0.0
53706.0,STARLINK-4716,PAYLOAD,2024-01-19 12:26:33,15.08759476,0.000181,53.2155,146.5088,61.296,298.8214,0.0011951,0.00018741,0.0,0 STARLINK-4716,1 53706U 22107G   24019.51843952  .00018741  00000-0  11951-2 0  9996,2 53706  53.2155 146.5088 0001810  61.2960 298.8214 15.08759476 76324,6918.127,95.443,541.244,538.739,0.0
53706.0,STARLINK-4716,PAYLOAD,2024-01-19 14:01:54,15.08851589,0.0001377,53.2162,146.2059,77.6607,282.454,0.0002308,3.388e-05,0.0,0 STARLINK-4716,1 53706U 22107G   24019.58466096  .00003388  00000-0  23080-3 0  9991,2 53706  53.2162 146.2059 0001377  77.6607 282.4540 15.08851589 77087,6917.845,95.437,540.663,538.757,0.0
53706.0,STARLINK-4716,PAYLOAD,2024-01-19 18:48:03,15.08857115,0.0001356,53.2158,145.3135,89.504,270.6107,0.00024858,3.672e-05,0.0,0 STARLINK-4716,1 53706U 22107G   24019.78337452  .00003672  00000-0  24858-3 0  9996,2 53706  53.2158 145.3135 0001356  89.5040 270.6107 15.08857115 76366,6917.828,95.436,540.631,538.755,0.0
53706.0,STARLINK-4716,PAYLOAD,2024-01-20 10:41:57,15.08830004,0.0001503,53.216,142.34,93.1427,266.9737,3.6658e-05,2.95e-06,0.0,0 STARLINK-4716,1 53706U 22107G   24020.44580071  .00000295  00000-0  36658-4 0  9998,2 53706  53.2160 142.3400 0001503  93.1427 266.9737 15.08830004 76461,6917.911,95.438,540.816,538.736,0.0
53706.0,STARLINK-4716,PAYLOAD,2024-01-20 13:52:43,15.08834211,0.0001335,53.2159,141.7458,97.0209,263.0935,7.4748e-05,9.02e-06,0.0,0 STARLINK-4716,1 53706U 22107G   24020.57827696  .00000902  00000-0  74748-4 0  9996,2 53706  53.2159 141.7458 0001335  97.0209 263.0935 15.08834211 77237,6917.898,95.438,540.687,538.84,0.0
53706.0,STARLINK-4716,PAYLOAD,2024-01-20 15:28:06,15.08835577,0.0001333,53.2159,141.4493,86.8984,273.2161,9.1336e-05,1.166e-05,0.0,0 STARLINK-4716,1 53706U 22107G   24020.64451623  .00001166  00000-0  91336-4 0  9992,2 53706  53.2159 141.4493 0001333  86.8984 273.2161 15.08835577 76494,6917.894,95.438,540.681,538.837,0.0
53706.0,STARLINK-4716,PAYLOAD,2024-01-21 13:43:29,15.08857195,0.0001368,53.216,137.2867,76.3964,283.7181,1.3155e-05,-7.9e-07,0.0,0 STARLINK-4716,1 53706U 22107G   24021.57186353 -.00000079  00000-0  13155-4 0  9996,2 53706  53.2160 137.2867 0001368  76.3964 283.7181 15.08857195 76638,6917.828,95.436,540.639,538.746,0.0
53706.0,STARLINK-4716,PAYLOAD,2024-01-21 16:54:14,15.08865129,0.0001193,53.2159,136.691,98.5106,261.6021,3.0947e-05,2.05e-06,0.0,0 STARLINK-4716,1 53706U 22107G   24021.70433562  .00000205  00000-0  30947-4 0  9996,2 53706  53.2159 136.6910 0001193  98.5106 261.6021 15.08865129 76654,6917.804,95.436,540.494,538.843,0.0
53706.0,STARLINK-4716,PAYLOAD,2024-01-22 07:12:44,15.08830774,0.0001247,53.2158,134.0157,88.1122,272.0013,9.7914e-05,1.27e-05,0.0,0 STARLINK-4716,1 53706U 22107G   24022.30051728  .00001270  00000-0  97914-4 0  9993,2 53706  53.2158 134.0157 0001247  88.1122 272.0013 15.08830774 77499,6917.909,95.438,540.636,538.911,0.0
53706.0,STARLINK-4716,PAYLOAD,2024-01-22 11:58:53,15.08839517,0.0001248,53.2162,133.1233,89.4534,270.6601,8.4565e-05,1.058e-05,0.0,0 STARLINK-4716,1 53706U 22107G   24022.49923331  .00001058  00000-0  84565-4 0  9993,2 53706  53.2162 133.1233 0001248  89.4534 270.6601 15.08839517 76772,6917.882,95.438,540.61,538.884,0.0
53706.0,STARLINK-4716,PAYLOAD,2024-01-22 13:34:16,15.08840408,0.0001338,53.2158,132.8259,89.5327,270.5819,9.6926e-05,1.255e-05,0.0,0 STARLINK-4716,1 53706U 22107G   24022.56547266  .00001255  00000-0  96926-4 0  9993,2 53706  53.2158 132.8259 0001338  89.5327 270.5819 15.08840408 77538,6917.879,95.438,540.67,538.819,0.0
53706.0,STARLINK-4716,PAYLOAD,2024-01-23 13:25:03,15.08849202,0.0001548,53.2165,128.3665,69.7041,290.4118,6.0404e-05,6.74e-06,0.0,0 STARLINK-4716,1 53706U 22107G   24023.55906824  .00000674  00000-0  60404-4 0  9998,2 53706  53.2165 128.3665 0001548  69.7041 290.4118 15.08849202 76930,6917.852,95.437,540.788,538.646,0.0
53706.0,STARLINK-4716,PAYLOAD,2024-01-24 11:40:28,15.08836733,0.0001243,53.2159,124.2024,82.1465,277.9668,3.4906e-05,2.68e-06,0.0,0 STARLINK-4716,1 53706U 22107G   24024.48643674  .00000268  00000-0  34906-4 0  9999,2 53706  53.2159 124.2024 0001243  82.1465 277.9668 15.08836733 77079,6917.89,95.438,540.615,538.895,0.0
53706.0,STARLINK-4716,PAYLOAD,2024-01-24 13:15:51,15.08837855,0.0001254,53.2161,123.9034,99.2404,260.873,5.2485e-05,5.47e-06,0.0,0 STARLINK-4716,1 53706U 22107G   24024.55267633  .00000547  00000-0  52485-4 0  9996,2 53706  53.2161 123.9034 0001254  99.2404 260.8730 15.08837855 77834,6917.887,95.438,540.619,538.884,0.0
53706.0,STARLINK-4716,PAYLOAD,2024-01-25 11:31:15,15.08843253,0.0001464,53.2179,119.7459,117.261,242.8532,6.8446e-07,-2.77e-06,0.0,0 STARLINK-4716,1 53706U 22107G   24025.48003716 -.00000277  00000-0  68446-6 0  9996,2 53706  53.2179 119.7459 0001464 117.2610 242.8532 15.08843253 77974,6917.87,95.437,540.748,538.723,0.0
53706.0,STARLINK-4716,PAYLOAD,2024-01-26 11:22:02,15.08842123,0.000148,53.2174,115.2858,113.645,246.4697,0.00017642,2.521e-05,0.0,0 STARLINK-4716,1 53706U 22107G   24026.47363612  .00002521  00000-0  17642-3 0  9992,2 53706  53.2174 115.2858 0001480 113.6450 246.4697 15.08842123 77374,6917.874,95.437,540.763,538.715,0.0
53706.0,STARLINK-4716,PAYLOAD,2024-01-27 12:48:13,15.08813139,0.0001466,53.2168,110.5231,88.4683,271.6477,0.00056305,8.678e-05,0.0,0 STARLINK-4716,1 53706U 22107G   24027.53348687  .00008678  00000-0  56305-3 0  9993,2 53706  53.2168 110.5231 0001466  88.4683 271.6477 15.08813139 77530,6917.962,95.439,540.842,538.813,0.0
53706.0,STARLINK-4716,PAYLOAD,2024-01-28 14:14:24,15.08799851,0.0001787,53.2177,105.766,77.9837,282.1356,0.00056106,8.643e-05,0.0,0 STARLINK-4716,1 53706U 22107G   24028.59333604  .00008643  00000-0  56106-3 0  9994,2 53706  53.2177 105.7660 0001787  77.9837 282.1356 15.08799851 78440,6918.003,95.44,541.104,538.632,0.0
53706.0,STARLINK-4716,PAYLOAD,2024-01-29 10:54:23,15.08851248,0.0001497,53.2172,101.8992,76.4153,283.7006,5.0614e-05,5.18e-06,0.0,0 STARLINK-4716,1 53706U 22107G   24029.45443730  .00000518  00000-0  50614-4 0  9994,2 53706  53.2172 101.8992 0001497  76.4153 283.7006 15.08851248 77822,6917.846,95.437,540.747,538.675,0.0
53706.0,STARLINK-4716,PAYLOAD,2024-01-29 14:05:09,15.08827019,0.0001624,53.2175,101.304,85.2374,274.8803,0.00056495,8.711e-05,0.0,0 STARLINK-4716,1 53706U 22107G   24029.58691947  .00008711  00000-0  56495-3 0  9998,2 53706  53.2175 101.3040 0001624  85.2374 274.8803 15.08827019 77846,6917.92,95.438,540.909,538.662,0.0
53706.0,STARLINK-4716,PAYLOAD,2024-01-30 10:45:11,15.08838985,0.0001366,53.2165,97.4363,104.2251,255.8893,5.5791e-05,6e-06,0.0,0 STARLINK-4716,1 53706U 22107G   24030.44804401  .00000600  00000-0  55791-4 0  9994,2 53706  53.2165  97.4363 0001366 104.2251 255.8893 15.08838985 78727,6917.883,95.438,540.693,538.804,0.0
53706.0,STARLINK-4716,PAYLOAD,2024-01-31 10:35:57,15.08865021,0.0001744,53.2175,92.9714,120.7688,239.3476,-0.00025653,-4.371e-05,0.0,0 STARLINK-4716,1 53706U 22107G   24031.44163598 -.00004371  00000-0 -25653-3 0  9994,2 53706  53.2175  92.9714 0001744 120.7688 239.3476 15.08865021 78124,6917.804,95.436,540.875,538.462,0.0
53706.0,STARLINK-4716,PAYLOAD,2024-01-31 13:46:43,15.08849421,0.0001521,53.2168,92.3814,82.3669,277.7496,-7.4557e-06,-4.07e-06,0.0,0 STARLINK-4716,1 53706U 22107G   24031.57411988 -.00000407  00000-0 -74557-5 0  9992,2 53706  53.2168  92.3814 0001521  82.3669 277.7496 15.08849421 78894,6917.852,95.437,540.769,538.664,0.0
53706.0,STARLINK-4716,PAYLOAD,2024-02-01 10:26:45,15.08839347,0.0001618,53.2173,88.5134,96.9714,263.1462,7.7051e-05,9.38e-06,0.0,0 STARLINK-4716,1 53706U 22107G   24032.43524341  .00000938  00000-0  77051-4 0  9994,2 53706  53.2173  88.5134 0001618  96.9714 263.1462 15.08839347 78271,6917.882,95.438,540.867,538.628,0.0
53706.0,STARLINK-4716,PAYLOAD,2024-02-02 10:17:34,15.08812403,0.0001491,53.2169,84.0533,85.6479,274.4684,-0.00018424,-3.217e-05,0.0,0 STARLINK-4716,1 53706U 22107G   24033.42886695 -.00003217  00000-0 -18424-3 0  9990,2 53706  53.2169  84.0533 0001491  85.6479 274.4684 15.08812403 78424,6917.965,95.439,540.861,538.798,0.0
53706.0,STARLINK-4716,PAYLOAD,2024-02-03 03:46:48,15.08821164,0.0001251,53.216,80.7868,79.0947,281.0186,-0.00014311,-2.564e-05,0.0,0 STARLINK-4716,1 53706U 22107G   24034.15751074 -.00002564  00000-0 -14311-3 0  9998,2 53706  53.2160  80.7868 0001251  79.0947 281.0186 15.08821164 78537,6917.938,95.439,540.668,538.938,0.0
53706.0,STARLINK-4716,PAYLOAD,2024-02-03 08:32:57,15.08834255,0.0001413,53.2163,79.8979,93.3663,266.749,-0.00011271,-2.081e-05,0.0,0 STARLINK-4716,1 53706U 22107G   24034.35622403 -.00002081  00000-0 -11271-3 0  9999,2 53706  53.2163  79.8979 0001413  93.3663 266.7490 15.08834255 78562,6917.898,95.438,540.74,538.785,0.0
